[{"OBJECT_NAME":"SJ-11-08","OBJECT_ID":"2014-066A","EPOCH":"2026-03-09T22:53:00.595104","MEAN_MOTION":14.66034371,"ECCENTRICITY":0.0012045,"INCLINATION":98.3343,"RA_OF_ASC_NODE":212.2023,"ARG_OF_PERICENTER":177.4868,"MEAN_ANOMALY":182.6397,"EPHEMERIS_TYPE":0,"CLASSIFICATION_TYPE":"U","NORAD_CAT_ID":40286,"ELEMENT_SET_NO":999,"REV_AT_EPOCH":60667,"BSTAR":0.00021581711,"MEAN_MOTION_DOT":1.134e-5,"MEAN_MOTION_DDOT":0},{"OBJECT_NAME":"CZ-2C R\/B","OBJECT_ID":"2013-035B","EPOCH":"2026-03-09T15:32:37.495680","MEAN_MOTION":14.56847358,"ECCENTRICITY":0.0050845,"INCLINATION":98.3267,"RA_OF_ASC_NODE":294.9476,"ARG_OF_PERICENTER":85.7492,"MEAN_ANOMALY":274.9515,"EPHEMERIS_TYPE":0,"CLASSIFICATION_TYPE":"U","NORAD_CAT_ID":39203,"ELEMENT_SET_NO":999,"REV_AT_EPOCH":67180,"BSTAR":9.6941e-5,"MEAN_MOTION_DOT":3.94e-6,"MEAN_MOTION_DDOT":0}]
